STARLINK-1715
1 26671C 20073B   21325.15851181  .00004021  00000-0  26934-3 0  3256
2 26671  53.0535  92.5195 0001481  88.5842 327.9096 15.06401239    15
